[{"OBJECT_NAME":"STARLINK-35655","OBJECT_ID":"2025-262Q","EPOCH":"2026-03-09T00:36:20.190816","MEAN_MOTION":15.27596437,"ECCENTRICITY":0.0002052,"INCLINATION":43.003,"RA_OF_ASC_NODE":300.0192,"ARG_OF_PERICENTER":253.1444,"MEAN_ANOMALY":106.9183,"EPHEMERIS_TYPE":0,"CLASSIFICATION_TYPE":"U","NORAD_CAT_ID":66470,"ELEMENT_SET_NO":999,"REV_AT_EPOCH":1880,"BSTAR":0.0012163908,"MEAN_MOTION_DOT":0.00033379,"MEAN_MOTION_DDOT":0},{"OBJECT_NAME":"COSMOS 2251 DEB","OBJECT_ID":"1993-036RB","EPOCH":"2026-03-09T01:08:04.800192","MEAN_MOTION":15.30699894,"ECCENTRICITY":0.00252965,"INCLINATION":73.7308,"RA_OF_ASC_NODE":76.2904,"ARG_OF_PERICENTER":263.9966,"MEAN_ANOMALY":95.8352,"EPHEMERIS_TYPE":0,"CLASSIFICATION_TYPE":"U","NORAD_CAT_ID":34410,"ELEMENT_SET_NO":999,"REV_AT_EPOCH":91089,"BSTAR":0.003018315,"MEAN_MOTION_DOT":0.00091531,"MEAN_MOTION_DDOT":0}]
